Site,LEC,# of DS1s,City,State,County,Lat,Long,NPA-NXX,Zip,Technology,MSC Location
DA 4119-2-1-0125-BROOK_HOLLOW,ATT,18,DALLAS,TX,DALLAS,32-49-29,-96-52-30,214-631,75247,LTE,ARLINGTON
DA 4119-3-1-0102-SUNDANCE,ATT,11,FORT WORTH,TX,TARRANT,32-45-13,-97-19-51,817-332,76102,LTE,ARLINGTON
DA 4119-3-1-0027-SOLANA_REPL,ATT,10,SOUTHLAKE,TX,DENTON,32-59-11,-97-09-26,,76262,LTE,ARLINGTON
DA 4119-3-1-0319-GAYLORD_TEXAN,ATT,10,GRAPEVINE,TX,TARRANT,32-57-24.08,-97-03-49.83,,76051,LTE,ARLINGTON
DA 4119-3-1-0048-ECHO_HILLS_PARK_REPL,ATT,8,NORTH RICHLAND HILLS,TX,TARRANT,32-52-50.18,-97-11-15.58,,76180,LTE,ARLINGTON
DA 4119-3-1-0056-SUMMERFIELDS,ATT,8,FORT WORTH,TX,TARRANT,32-52-32.3,-97-18-57.3,817-232,76137,LTE,ARLINGTON
DA 4119-2-1-0018-LITTLE_ELM,ATT,7,LITTLE ELM,TX,DENTON,33-11-19.1,-96-53-14.6,972-377,75068,LTE,ARLINGTON
DA 4119-2-1-0130-LONE_STAR,VZW,7,DALLAS,TX,DALLAS,32-46-08,-96-51-23,214-631,75208,LTE,ARLINGTON
DA 4119-3-1-0029-ROANOKE_SS,ATT,7,DENTON CO.,TX,DENTON,32-59-31.7,-97-15-50.3,817-491,76262,LTE,ARLINGTON
DA 4119-3-1-0051-GOLDEN_TRIANGLE,ATT,7,HASLET,TX,TARRANT,32-55-54,-97-19-29,817-431,76052,LTE,ARLINGTON
DA 4119-3-1-0068-RICHLAND_CENTRE,ATT,7,NORTH RICHLAND HILLS,TX,TARRANT,32-50-23,-97-11-21,817-281,76054,LTE,ARLINGTON
DA 4119-3-1-0140-TIMBER_RUN,ATT,7,ARLINGTON,TX,TARRANT,32-37-46,-97-10-20,817-478,76001,LTE,ARLINGTON
DA 4119-2-1-0049-TELECOM_CORRIDOR,ATT,6,RICHARDSON,TX,DALLAS,32-58-40.5,-96-42-58.0,972-231,75080,LTE,ARLINGTON
DA 4119-2-1-0105-ROCKWALL,ATT,6,ROCKWALL,TX,ROCKWALL,32-53-20,-96-26-33,972-722,75032,LTE,ARLINGTON
DA 4119-2-1-0313-SPRING_VALLEY_CENTER,ATT,6,DALLAS,TX,DALLAS,32-56-19.43,-96-49-11.52,,75254,LTE,ARLINGTON
DA 4119-3-1-0070-IRON_HORSE,ATT,6,NORTH RICHLAND HILLS,TX,TARRANT,32-50-22,-97-14-33,817-281,76180,LTE,ARLINGTON
DA 4119-3-1-0073-BLUE_MOUND,ATT,6,SAGINAW,TX,TARRANT,32-50-27,-97-20-42,817-624,76106,LTE,ARLINGTON
DA 4119-3-1-0101-GALVESTON,ATT,6,FORT WORTH,TX,TARRANT,32-44-20,-97-19-33,817-332,76104,LTE,ARLINGTON
DA 4119-3-1-0104-WEST_SERVICE_CENTER,ATT,6,FORT WORTH,TX,TARRANT,32-44-21,-97-21-52,817-731,76107,LTE,ARLINGTON
DA 4119-3-1-0111-PAFFORD_STREET_SS,ATT,6,FORT WORTH,TX,TARRANT,32-41-41,-97-21-13,817-921,76110,LTE,ARLINGTON
DA 4119-3-1-0359-MANSFIELD_TOWN_CENTER,ATT,6,MANSFIELD,TX,TARRANT,32-36-00.73,-97-08-47.34,817-473,76063,LTE,ARLINGTON
DA 4119-3-1-0370-LINDENTREE_LANE,ATT,6,FORT WORTH,TX,TARRANT,32-52-08.7,-97-15-48.6,,76137,LTE,ARLINGTON
DA 4119-2-1-0031-COLONY_WT,ATT,5,THE COLONY,TX,DENTON,33-05-03,-96-53-04,972-370,75056,LTE,ARLINGTON
DA 4119-3-1-0020-GRAPEVINE_NORTH,ATT,5,FLOWER MOUND,TX,DENTON,33-02-34,-97-07-24,817-491,75028,LTE,ARLINGTON
DA 4119-3-1-0074-LAKE_WORTH_WATER_TOWER,ATT,5,LAKE WORTH,TX,TARRANT,32-49-05.0,-97-24-51.7,,76135,LTE,ARLINGTON
DA 4119-3-1-0078-RIVER_OAKS,ATT,5,RIVER OAKS,TX,TARRANT,32-46-44,-97-23-37,817-624,76114,LTE,ARLINGTON
DA 4119-3-1-0082-BELKNAP,ATT,5,FORT WORTH,TX,TARRANT,32-47-25,-97-17-31,817-831,76111,LTE,ARLINGTON
DA 4119-3-1-0100-7TH_AND_JONES,ATT,5,FORT WORTH,TX,TARRANT,32-45-13,-97-19-34,817-332,76102,LTE,ARLINGTON
DA 4119-3-1-0103-HUNTERS_PLAZA,ATT,5,FORT WORTH,TX,TARRANT,32-45-13,-97-20-09,817-332,76102,LTE,ARLINGTON
DA 4119-3-1-0112-BRYAN_STREET_SS,ATT,5,FORT WORTH,TX,TARRANT,32-42-17,-97-19-30,817-921,76110,LTE,ARLINGTON
DA 4119-3-1-0141-MANSFIELD_NORTH,ATT,5,ARLINGTON,TX,TARRANT,32-36-25,-97-04-52,817-473,76002,LTE,ARLINGTON
DA 4119-2-1-0005-MCKINNEY_NORTH_WT,ATT,4,MCKINNEY,TX,COLLIN,33-13-03.9,-96-38-01.8,972-542,75069,LTE,ARLINGTON
DA 4119-2-1-0273-PANTHER_CREEK_WT,ATT,4,FRISCO,TX,COLLIN,33-10-30.2,-96-46-21.5,,75035,LTE,ARLINGTON
DA 4119-3-1-0019-TOUR_18,ATT,4,FLOWER MOUND,TX,DENTON,33-03-28,-97-10-08,817-491,75022,LTE,ARLINGTON
DA 4119-3-1-0028-DORMAN,ATT,4,ROANOKE,TX,DENTON,33-00-13,-97-13-25,817-491,76262,LTE,ARLINGTON
DA 4119-3-1-0079-MEACHAM,ATT,4,FORT WORTH,TX,TARRANT,32-48-35,-97-21-01,817-624,76106,LTE,ARLINGTON
DA 4119-3-1-0080-STOCKYARDS,ATT,4,FORT WORTH,TX,TARRANT,32-46-45,-97-20-13,817-332,76102,LTE,ARLINGTON
DA 4119-3-1-0081-RAY_SIMON,ATT,4,FORT WORTH,TX,TARRANT,32-47-56,-97-19-21,817-624,76106,LTE,ARLINGTON
DA 4119-3-1-0084-ROSEBUD_PARK,ATT,4,RICHLAND HILLS,TX,TARRANT,32-48-05,-97-13-20,817-284,76118,LTE,ARLINGTON
DA 4119-3-1-0099-BEACH,ATT,4,FORT WORTH,TX,TARRANT,32-44-54.7,-97-17-38.5,817-531,76103,LTE,ARLINGTON
DA 4119-3-1-0113-DUVAL_SS,ATT,4,FORT WORTH,TX,TARRANT,32-43-30,-97-17-45,817-531,76104,LTE,ARLINGTON
DA 4119-3-1-0184-GREEN_VALLEY_WT,ATT,4,NORTH RICHLAND HILLS,TX,TARRANT,32-53-03,-97-13-10,817-281,76180,LTE,ARLINGTON
DA 4119-3-1-0185-INDIAN_KNOLL,ATT,4,KELLER,TX,TARRANT,32-54-45.45,-97-11-21.63,,76180,LTE,ARLINGTON
DA 4119-3-1-0270-SOUTHLAKE_NNOC,ATT,4,SOUTHLAKE,TX,TARRANT,32-58-18.65,-97-09-22.13,682-831,76092,LTE,ARLINGTON
DA 4119-3-1-0391-MANSFIELD_BROAD_WT,ATT,4,MANSFIELD,TX,TARRANT,32-34-19.63,-97-05-16.87,,76063,LTE,ARLINGTON
DA 4119-3-1-0393-MANSFIELD_JUSTICE,ATT,4,MANSFIELD,TX,TARRANT,32-33-09.65,-97-07-05.25,,76063,LTE,ARLINGTON
DA 4119-2-1-0003-PROSPER,ATT,3,FRISCO,TX,COLLIN,33-12-04,-96-48-11,972-377,75034,LTE,ARLINGTON
DA 4119-2-1-0208-DALLAS_YOUTH,ATT,3,DALLAS,TX,DALLAS,32-40-25,-96-41-48,972-225,75241,LTE,ARLINGTON
DA 4119-3-1-0096-CANYON,ATT,3,FORT WORTH,TX,TARRANT,32-46-12,-97-13-18,817-451,76112,LTE,ARLINGTON
DA 4119-3-1-0314-TROPHY_CLUB,ATT,3,TROPHY CLUB,TX,DENTON,32-59-37.6,-97-11-36.0,,76262,LTE,ARLINGTON
DA 4119-3-1-0018-SPEEDWAY,ATT,1,JUSTIN,TX,DENTON,33-02-55,-97-16-15,817-491,76247,LTE,ARLINGTON
DA 4119-3-1-0349-COWBOYS_STADIUM,ATT,1,ARLINGTON,TX,TARRANT,32-44-20.04,-97-05-29.72,,76011,LTE,ARLINGTON
DA 4119-3-1-0048-ECHO_HILLS_PARK,ATT,New,NORTH RICHLAND HILLS,TX,TARRANT,32-52-44,-97-11-10,817-281,76180,NON-LTE,ARLINGTON
DA 4119-3-1-0353-CROWLEY_CLEBURNE RD.,ATT,New,CROWLEY,TX,TARRANT,32-36-30.8,-97-21-12.7,,76036,NON-LTE,ARLINGTON
DA 4119-3-1-0357 MCCART,ATT,New,FORT WORTH,TX,TARRANT,32-40-05.10,-97-21-12.63,,76115,NON-LTE,ARLINGTON
DA 4119-2-1-0052-BONAVENTURE,ATT,12,DALLAS,TX,DALLAS,32-58-04,-96-49-06,972-239,75248,NON-LTE,ARLINGTON
DA 4119-3-1-0138-CROWLEY,ATT,11,BURLESON,TX,TARRANT,32-33-31,-97-19-03,817-295,76028,NON-LTE,ARLINGTON
DA 4119-4-1-0024-WICHITA_RIVER,ATT,11,WICHITA FALLS,TX,WICHITA,33-55-4,-98-29-44,940-767,76301,NON-LTE,LONESTAR
DA 4119-2-1-0119-HOWELL_STREET,ATT,10,DALLAS,TX,DALLAS,32-48-14,-96-47-47,,75204,NON-LTE,ARLINGTON
DA 4119-3-1-0360-WAXAHACHIE_INDUSTRIAL,MW,10,WAXAHACHIE,TX,ELLIS,32-25-17.3,-96-51-08.3,,75165,NON-LTE,ARLINGTON
DA 4119-4-1-0020-BACON,ATT,10,WICHITA FALLS,TX,WICHITA,34-0-3,-98-32-47,940-885,76305,NON-LTE,LONESTAR
DA 4119-2-1-0066-NORTHWOOD,ATT,9,DALLAS,TX,DALLAS,32-55-29,-96-48-27,972-239,75230,NON-LTE,ARLINGTON
DA 4119-2-1-0314-FARMERS_BRANCH_BELTWOOD_WT,ATT,9,FARMERS BRANCH,TX,DALLAS,32-56-47.3,-96-50-06.9,,75244,NON-LTE,ARLINGTON
DA 4119-3-1-0055-SAGINAW,ATT,9,SAGINAW,TX,TARRANT,32-52-48,-97-23-29,817-237,76179,NON-LTE,ARLINGTON
DA 4119-3-1-0181-ARLINGTON_SOUTHEAST,ATT,9,ARLINGTON,TX,TARRANT,32-38-41.2,-97-04-25.9,,76018,NON-LTE,ARLINGTON
DA 4119-2-1-0065-MEADOW_CREEK_REPL,ATT,8,DALLAS,TX,DALLAS,32-57-03,-96-48-05,972-239,75240,NON-LTE,ARLINGTON
DA 4119-2-1-0133-TRUNK,ATT,8,DALLAS,TX,DALLAS,32-47-11,-96-46-26,214-821,75226,NON-LTE,ARLINGTON
DA 4119-2-1-0271-PARKWOOD_WT,GRANDECOMM,8,FRISCO,TX,COLLIN,33-06-40.98,-96-48-51.81,,75034,NON-LTE,ARLINGTON
DA 4119-3-1-0128-HARMON,ATT,8,ARLINGTON,TX,TARRANT,32-39-20,-97-07-46,817-465,76017,NON-LTE,ARLINGTON
DA 4119-3-1-0135-BRYANT_IRVIN_SS,ATT,8,FORT WORTH,TX,TARRANT,32-40-26,-97-25-04,817-292,76132,NON-LTE,ARLINGTON
DA 4119-2-1-0083-ROYAL_LANE,ATT,7,DALLAS,TX,DALLAS,32-53-59,-96-46-12,214-361,75231,NON-LTE,ARLINGTON
DA 4119-3-1-0106-LAS_VEGAS,ATT,7,FORT WORTH,TX,TARRANT,32-44-16,-97-27-53,817-244,76116,NON-LTE,ARLINGTON
DA 4119-3-1-0204-MANSFIELD_HIGH,ATT,7,ARLINGTON,TX,TARRANT,32-37-17,-97-7-53,817-465,76001,NON-LTE,ARLINGTON
DA 4119-3-1-0355 MANSFIELD_SOUTH,ATT,7,ALVARADO,TX,JOHNSON,32-32-39.45,-97-08-25.98,,76063,NON-LTE,ARLINGTON
DA 4119-4-1-0017-RUIDOSA,ATT,7,WICHITA FALLS,TX,WICHITA,33-57-01.9,-98-32-43.11,,76305,NON-LTE,LONESTAR
DA 4119-4-1-0025-SCOTT_STREET,ATT,7,WICHITA FALLS,TX,WICHITA,33-54-00,-98-27-24,,76301,NON-LTE,LONESTAR
DA 4119-2-1-0067-3M_BILLBOARD,ATT,6,DALLAS,TX,DALLAS,32-55-33,-96-47-37,972-239,75240,NON-LTE,ARLINGTON
DA 4119-2-1-0071-DUCK_CREEK,ATT,6,RICHARDSON,TX,DALLAS,32-57-24,-96-41-57,972-231,75081,NON-LTE,ARLINGTON
DA 4119-2-1-0090-ROSELAND_AVENUE,ATT,6,DALLAS,TX,DALLAS,32-47-47,-96-47-22,,75204,NON-LTE,ARLINGTON
DA 4119-2-1-0104-ROCKWALL_CENTRAL,ATT,6,ROCKWALL,TX,ROCKWALL,32-55-27,-96-27-31,,75087,NON-LTE,ARLINGTON
DA 4119-2-1-0151-SAMUEL_PARK,ATT,6,MESQUITE,TX,DALLAS,32-46-07,-96-35-08,972-285,75149,NON-LTE,ARLINGTON
DA 4119-2-1-0154-BACHELOR_CREEK,ATT,6,TERRELL,TX,KAUFMAN,32-44-43,-96-18-15,972-563,75160,NON-LTE,ARLINGTON
DA 4119-2-1-0213-CLARK,ATT,6,CEDAR HILL,TX,DALLAS,32-35-4,-96-56-31,972-291,75104,NON-LTE,ARLINGTON
DA 4119-2-1-0216-GLENN_HEIGHTS,ATT,6,LANCASTER,TX,DALLAS,32-34-10,-96-49-12,972-223,75146,NON-LTE,ARLINGTON
DA 4119-2-1-0230-CEDAR_HILL_NORTH,ATT,6,CEDAR HILL,TX,DALLAS,32-35-21,-96-58-10,972-293,75104,NON-LTE,ARLINGTON
DA 4119-2-1-0328-DALLAS_SPUR_408,ATT,6,DALLAS,TX,DALLAS,32-41-45.92,-96-56-03.58,,75236,NON-LTE,ARLINGTON
DA 4119-2-1-0336-DALLAS_BRAEBURN_DRIVE,ATT,6,DALLAS,TX,DALLAS,32-50-24,-96-44-45,,75214,NON-LTE,ARLINGTON
DA 4119-3-1-0133-TU_EDGE,ATT,6,FORT WORTH,TX,TARRANT,32-38-54,-97-21-06,817-293,76134,NON-LTE,ARLINGTON
DA 4119-3-1-0165-NORTHCREST,ATT,6,LACY-LAKEVIEW,TX,MCLENNAN,31-36-41,-97-06-36,817-662,76705,NON-LTE,ARLINGTON
DA 4119-3-1-0166-BEVERLY_HILLS,ATT,6,WACO,TX,MCLENNAN,31-31-34.1,-97-07-52.9,254-752,76706,NON-LTE,ARLINGTON
DA 4119-3-1-0180-CROWLEY_WEST,ATT,6,CROWLEY,TX,TARRANT,32-34-49,-97-21-28,817-297,76036,NON-LTE,ARLINGTON
DA 4119-3-1-0187-LAKE_COUNTRY,ATT,6,FORT WORTH,TX,TARRANT,32-51-45,-97-25-30,,76179,NON-LTE,ARLINGTON
DA 4119-3-1-0250-WACO_DOWNTOWN,ATT,6,WACO,TX,MCLENNAN,31-33-2,-97-7-49,,76706,NON-LTE,ARLINGTON
DA 4119-3-1-0366-ARLINGTON_WOODS,ATT,6,ARLINGTON,TX,TARRANT,32-42-55.19,-97-06-25.86,,76010,NON-LTE,ARLINGTON
DA 4119-3-1-0390-GRAND_PRAIRIE_WARRIOR,ATT,6,GRAND PRAIRIE,TX,DALLAS,32-41-35.33,-97-00-24.39,,75052,NON-LTE,ARLINGTON
DA 4119-4-1-0012-HATTON,ATT,6,WICHITA FALLS,TX,WICHITA,33-52-1,-98-27-52,940-767,76310,NON-LTE,LONESTAR
DA 4119-2-1-0107-ROYSE_CITY,ATT,5,ROYSE CITY,TX,ROCKWALL,32-58-08,-96-20-32,972-635,75189,NON-LTE,ARLINGTON
DA 4119-2-1-0147-MESQUITE_RT,ATT,5,MESQUITE,TX,DALLAS,32-45-45,-96-38-04,972-285,75149,NON-LTE,ARLINGTON
DA 4119-2-1-0153-LAWRENCE,ATT,5,FORNEY,TX,KAUFMAN,32-43-02,-96-24-36,972-563,75126,NON-LTE,ARLINGTON
DA 4119-2-1-0173-RED_OAK_NORTH,ATT,5,RED OAK,TX,ELLIS,32-31-30,-96-49-37,,75157,NON-LTE,ARLINGTON
DA 4119-2-1-0186-MURDOCK,ATT,5,DALLAS,TX,DALLAS,32-42-43,-96-40-49,214-391,75217,NON-LTE,ARLINGTON
DA 4119-2-1-0214-WATERFORD,ATT,5,DESOTO,TX,DALLAS,32-35-3,-96-53-42,972-223,75115,NON-LTE,ARLINGTON
DA 4119-2-1-0217-LANCASTER,ATT,5,LANCASTER,TX,DALLAS,32-36-15,-96-45-59,972-227,75146,NON-LTE,ARLINGTON
DA 4119-2-1-0231-CEDAR_HILL_SOUTH,ATT,5,CEDAR HILL,TX,DALLAS,32-33-18,-96-59-33,972-293,75104,NON-LTE,ARLINGTON
DA 4119-2-1-0242-BIGGERS,ATT,5,MCKINNEY,TX,COLLIN,33-09-05,-96-33-34,,75069,NON-LTE,ARLINGTON
DA 4119-2-1-0245-DESOTO_SOUTH,ATT,5,DESOTO,TX,DALLAS,32-35-15,-96-51-28,,75115,NON-LTE,ARLINGTON
DA 4119-2-1-0269-RESTLAND_CEMETERY,ATT,5,DALLAS,TX,DALLAS,32-55-57.35,-96-44-37.12,,75243,NON-LTE,ARLINGTON
DA 4119-2-1-0306-HASKELL_AVENUE_NORTH,ATT,5,DALLAS,TX,DALLAS,32-48-18,-96-47-18,,75204,NON-LTE,ARLINGTON
DA 4119-2-1-0316- HILLCREST_VILLAGE,ATT,5,DALLAS,TX,DALLAS,32-57-50.40,-96-47-19.56,,75248,NON-LTE,ARLINGTON
DA 4119-2-1-0323 RICHARDSON_HOLLY_WT,ATT,5,RICHARDSON,TX,DALLAS,32-57-24.94,-96-45-49.23,,75080,NON-LTE,ARLINGTON
DA 4119-3-1-0058-WATAUGA,ATT,5,WATAUGA,TX,TARRANT,32-51-53,-97-14-17,817-281,76148,NON-LTE,ARLINGTON
DA 4119-3-1-0066-BEAR_CREEK,ATT,5,FORT WORTH,TX,TARRANT,32-50-07,-97-02-21,817-283,76155,NON-LTE,ARLINGTON
DA 4119-3-1-0076-WHITE_SETTLEMENT,ATT,5,FORT WORTH,TX,TARRANT,32-45-45,-97-28-48,817-246,76108,NON-LTE,ARLINGTON
DA 4119-3-1-0109-RIVER_PARK,ATT,5,BENBROOK,TX,TARRANT,32-41-45,-97-24-59,817-731,76109,NON-LTE,ARLINGTON
DA 4119-3-1-0110-HULEN,ATT,5,FORT WORTH,TX,TARRANT,32-41-03,-97-23-33,817-731,76109,NON-LTE,ARLINGTON
DA 4119-3-1-0131-820_BUSINESS_PARK,ATT,5,FORT WORTH,TX,TARRANT,32-39-00,-97-17-05,817-293,76140,NON-LTE,ARLINGTON
DA 4119-3-1-0134-HULEN_SOUTH,ATT,5,FORT WORTH,TX,TARRANT,32-38-29,-97-23-41,817-292,76133,NON-LTE,ARLINGTON
DA 4119-3-1-0139-RENDON,ATT,5,FORT WORTH,TX,TARRANT,32-36-42,-97-13-32,817-478,76140,NON-LTE,ARLINGTON
DA 4119-3-1-0151-CLEBURNE_WEST,ATT,5,CLEBURNE,TX,JOHNSON,32-20-36,-97-23-13,817-645,76031,NON-LTE,ARLINGTON
DA 4119-3-1-0169-LILLIAN,ATT,5,JOHNSON COUNTY,TX,JOHNSON,32-31-1,-97-7-57,817-473,76084,NON-LTE,ARLINGTON
DA 4119-3-1-0170-LILLIAN_NORTH,ATT,5,BURLESON,TX,JOHNSON,32-32-24,-97-12-54,817-477,76028,NON-LTE,ARLINGTON
DA 4119-3-1-0200-HEWITT,ATT,5,HEWITT,TX,MCLENNAN,31-27-55.5,-97-11-17.1,254-772,76643,NON-LTE,ARLINGTON
DA 4119-3-1-0217-GRANBURY,ATT,5,GRANBURY,TX,HOOD,32-25-59,-97-45-27,817-573,76049,NON-LTE,ARLINGTON
DA 4119-3-1-0219-CARMICHAEL_BEND,WINDSTREAM,5,GRANBURY,TX,HOOD,32-23-31,-97-39-54,817-326,76049,NON-LTE,ARLINGTON
DA 4119-3-1-0312-PATTON_BRANCH,ATT,5,WEATHERFORD,TX,PARKER,32-51-02.6,-97-45-45.9,,76088,NON-LTE,ARLINGTON
DA 4119-3-1-0325-LAKE_WORTH_CENTRAL,ATT,5,LAKE WORTH,TX,TARRANT,32-48-37.7,-97-26-12.3,,76135,NON-LTE,ARLINGTON
DA 4119-3-1-0326-TCU_CAMPUS,ATT,5,FORT WORTH,TX,TARRANT,32-42-20.0,-97-21-36.6,,76109,NON-LTE,ARLINGTON
DA 4119-3-1-0350-EIGHTH_AVENUE,ATT,5,FORT WORTH,TX,TARRANT,32-43-30.2,-97-20-41.2,,76110,NON-LTE,ARLINGTON
DA 4119-3-1-0353-CROWLEY_CLEBURNE_ROAD,ATT,5,FORT WORTH,TX,TARRANT,32-36-30.8,-97-21-12.7,,76036,NON-LTE,ARLINGTON
DA 4119-3-1-0357-FORT_WORTH_MCCART,ATT,5,FORT WORTH,TX,,32-40-05.10,-97-21-12.63,807-207,76115,NON-LTE,ARLINGTON
DA 4119-3-1-0358 MANSFIELD_PATTERSON,ATT,5,MANSFIELD,TX,TARRANT,32-36-17.13,-97-11-12.77,,76063,NON-LTE,ARLINGTON
DA 4119-3-1-0362-BURLESON_GEORGIA_WT,ATT,5,BURLESON,TX,JOHNSON,32-31-22.25,-97-15-55.12,,76028,NON-LTE,ARLINGTON
DA 4119-3-1-0367-FORT_WORTH_REAGAN,ATT,5,FORT WORTH,TX,TARRANT,32-43-06.09,-97-26-55.47,,76116,NON-LTE,ARLINGTON
DA 4119-3-1-0377-HALTOM_HIGH_SCHOOL,ATT,5,HALTOM CITY,TX,TARRANT,32-50-52.44,-97-16-30.73,817-427,76137,NON-LTE,ARLINGTON
DA 4119-3-1-0392-FORT_WORTH_SEMINARY,ATT,5,FORT WORTH,TX,TARRANT,32-40-59.98,-97-22-20.45,,76109,NON-LTE,ARLINGTON
DA 4119-4-1-0016-WESTOVER_HILLS,ATT,5,WICHITA FALLS,TX,WICHITA,33-54-13,-98-31-51,940-767,76301,NON-LTE,LONESTAR
DA 4119-4-1-0161-RICE_SCHOOL_ROAD,ATT,5,TYLER,TX,SMITH,32-17-31,-95-18-15,903-561,75703,NON-LTE,LONESTAR
DA 4119-4-1-0198-LONGVIEW_NORTHWEST_LOOP,ATT,5,LONGVIEW,TX,GREGG,32-31-43,-94-46-45,903-759,75604,NON-LTE,LONESTAR
DA 4119-2-1-0007-MCKINNEY_SOUTH,ATT,4,MCKINNEY,TX,COLLIN,33-10-59,-96-38-20,972-542,75069,NON-LTE,ARLINGTON
DA 4119-2-1-0019-GREENVILLE_NORTHWEST,ATT,4,GREENVILLE,TX,HUNT,33-09-18,-96-07-57,903-454,75401,NON-LTE,ARLINGTON
DA 4119-2-1-0068-COIT,ATT,4,DALLAS,TX,DALLAS,32-56-24.8,-96-46-09.4,972-458,75254,NON-LTE,ARLINGTON
DA 4119-2-1-0129-SINGLETON,ATT,4,DALLAS,TX,DALLAS,32-46-44.9,-96-53-04.0,214-631,75212,NON-LTE,ARLINGTON
DA 4119-2-1-0148-STELLA,ATT,4,DALLAS,TX,DALLAS,32-43-39,-96-48-17,214-941,75216,NON-LTE,ARLINGTON
DA 4119-2-1-0152-SUNNYVALE,ATT,4,FORNEY,TX,KAUFMAN,32-46-34,-96-30-52,972-226,75126,NON-LTE,ARLINGTON
DA 4119-2-1-0164-WESTON,ATT,4,CELINA,TX,COLLIN,33-21-32,-96-40-20,,75009,NON-LTE,ARLINGTON
DA 4119-2-1-0166-ANNA,ATT,4,ANNA,TX,COLLIN,33-20-42,-96-33-34,,75409,NON-LTE,ARLINGTON
DA 4119-2-1-0171-CEDAR_HILL_SOUTHEAST,ATT,4,CEDAR HILL,TX,DALLAS,32-33-34.7,-96-53-32.5,,75106,NON-LTE,ARLINGTON
DA 4119-2-1-0182-LAWSON,ATT,4,MESQUITE,TX,DALLAS,32-42-15,-96-33-43,972-285,75181,NON-LTE,ARLINGTON
DA 4119-2-1-0183-LENDERS,ATT,4,DALLAS,TX,DALLAS,32-41-01,-96-37-12,972-286,75253,NON-LTE,ARLINGTON
DA 4119-2-1-0191-WYNNEWOOD,ATT,4,DALLAS,TX,DALLAS,32-43-11,-96-49-43,214-941,75224,NON-LTE,ARLINGTON
DA 4119-2-1-0197-KIEST,ATT,4,DALLAS,TX,DALLAS,32-42-45.1,-96-55-07.0,214-331,75211,NON-LTE,ARLINGTON
DA 4119-2-1-0204-REDBIRD_MALL_REPL,ATT,4,DALLAS,TX,DALLAS,32-38-50,-96-51-23,972-298,75232,NON-LTE,ARLINGTON
DA 4119-2-1-0205-BROOKS,ATT,4,DALLAS,TX,DALLAS,32-40-24,-96-49-23,214-371,75232,NON-LTE,ARLINGTON
DA 4119-2-1-0206-GLENDALE,ATT,4,DALLAS,TX,DALLAS,32-41-06,-96-47-22,214-371,75241,NON-LTE,ARLINGTON
DA 4119-2-1-0207-CUMMINGS_PARK,ATT,4,DALLAS,TX,DALLAS,32-42-01,-96-45-19,214-371,75216,NON-LTE,ARLINGTON
DA 4119-2-1-0215-MOSLEY,ATT,4,DESOTO,TX,DALLAS,32-36-32,-96-51-26,972-223,75115,NON-LTE,ARLINGTON
DA 4119-2-1-0239-UNION_VALLEY,ATT,4,ROYCE CITY,TX,HUNT,32-54-57.5,-96-14-27.9,,75189,NON-LTE,ARLINGTON
DA 4119-2-1-0262- LANCASTER_SOUTH,ATT,4,RED OAK,TX,ELLIS,32-32-40.6,-96-45-55.2,,75154,NON-LTE,ARLINGTON
DA 4119-2-1-0270-SOUTHWEST_PARK_WT,ATT,4,FRISCO,TX,COLLIN,33-07-42.0,-96-51-39.3,,75034,NON-LTE,ARLINGTON
DA 4119-2-1-0275-MCKINNEY_CENTRAL,ATT,4,MCKINNEY,TX,COLLIN,33-11-59.83,-96-38-24.21,,75071,NON-LTE,ARLINGTON
DA 4119-2-1-0285-CELINA_SOUTHEAST,ATT,4,CELINA,TX,COLLIN,33-17-12.49,-96-45-42.68,,75009,NON-LTE,ARLINGTON
DA 4119-2-1-0289-CAMPBELL_CROSSING,ATT,4,DALLAS,TX,DALLAS,32-58-56.56,-96-48-11.46,,75248,NON-LTE,ARLINGTON
DA 4119-2-1-0292-HARDIN_ROAD,ATT,4,MCKINNEY,TX,COLLIN,33-13-00.0,-96-39-57.6,,75071,NON-LTE,ARLINGTON
DA 4119-2-1-0293-STONEBRIDGE_NORTH,ATT,4,MCKINNEY,TX,COLLIN,33-13-14.1,-96-42-59.4,,75071,NON-LTE,ARLINGTON
DA 4119-2-1-0299-DEEP_ELLUM,ATT,4,DALLAS,TX,DALLAS,32-46-54,-96-47-02,,75226,NON-LTE,ARLINGTON
DA 4119-2-1-0304-MCKINNEY_ELDORADO,ATT,4,MCKINNEY,TX,COLLIN,33-10-13.20,-96-40-23.18,,75070,NON-LTE,ARLINGTON
DA 4119-2-1-0321-DALLAS_CAMELOT,ATT,4,DALLAS,TX,DALLAS,32-53-07.80,-96-51-55.64,,75229,NON-LTE,ARLINGTON
DA 4119-2-1-0322-DALLAS_CRESTLINE,ATT,4,DALLAS,TX,DALLAS,32-54-05.28,-96-50-04.64,,75229,NON-LTE,ARLINGTON
DA 4119-3-1-0008-CORINTH,CENTURYTEL,4,CORINTH,TX,DENTON,33-07-51,-97-02-54,940-497,76205,NON-LTE,ARLINGTON
DA 4119-3-1-0015-BROWN_TRAIL,ATT,4,BEDFORD,TX,TARRANT,32-49-29.4,-97-09-50.4,,76022,NON-LTE,ARLINGTON
DA 4119-3-1-0017-SPEEDWAY_WEST,EMBARQCOMM,4,JUSTIN,TX,DENTON,33-02-11,-97-22-38,817-491,76247,NON-LTE,ARLINGTON
DA 4119-3-1-0030-HICKS,ATT,4,HASLET,TX,TARRANT,32-58-08,-97-24-35,817-439,76052,NON-LTE,ARLINGTON
DA 4119-3-1-0049-RAPP_ROAD_REPL,ATT,4,KELLER,TX,TARRANT,32-54-10.5,-97-13-04.9,,76248,NON-LTE,ARLINGTON
DA 4119-3-1-0052-EAGLE_MOUNTAIN,ATT,4,FORT WORTH,TX,TARRANT,32-54-28,-97-27-58,817-236,76179,NON-LTE,ARLINGTON
DA 4119-3-1-0069-HOOTERS,ATT,4,NORTH RICHLAND HILLS,TX,TARRANT,32-49-40,-97-13-19,817-281,76180,NON-LTE,ARLINGTON
DA 4119-3-1-0071-GLENVIEW,ATT,4,HALTOM CITY,TX,TARRANT,32-49-46,-97-15-59,817-281,76117,NON-LTE,ARLINGTON
DA 4119-3-1-0083-CARSON,ATT,4,HALTOM CITY,TX,TARRANT,32-47-55,-97-15-22,817-831,76117,NON-LTE,ARLINGTON
DA 4119-3-1-0107-LINKCREST,ATT,4,FORT WORTH,TX,TARRANT,32-43-10,-97-32-04,817-244,76008,NON-LTE,ARLINGTON
DA 4119-3-1-0108-BENBROOK_SS,ATT,4,BENBROOK,TX,TARRANT,32-41-23,-97-27-54,817-244,76126,NON-LTE,ARLINGTON
DA 4119-3-1-0130-LAKE_ARLINGTON_REPL,ATT,4,ARLINGTON,TX,TARRANT,32-40-08,-97-13-41,817-478,76016,NON-LTE,ARLINGTON
DA 4119-3-1-0132-FELIX,ATT,4,FORT WORTH,TX,TARRANT,32-40-27,-97-19-10,817-921,76115,NON-LTE,ARLINGTON
DA 4119-3-1-0137-WHISKEY_FLATS,ATT,4,FORT WORTH,TX,TARRANT,32-37-36,-97-30-28,817-249,76126,NON-LTE,ARLINGTON
DA 4119-3-1-0147-BURLESON,ATT,4,BURLESON,TX,JOHNSON,32-30-32,-97-20-43,817-645,76028,NON-LTE,ARLINGTON
DA 4119-3-1-0148-JOSHUA,ATT,4,JOSHUA,TX,JOHNSON,32-27-39,-97-23-02,817-645,76058,NON-LTE,ARLINGTON
DA 4119-3-1-0149-CLEBURNE_NORTH,ATT,4,CLEBURNE,TX,JOHNSON,32-23-48,-97-23-08,817-645,76031,NON-LTE,ARLINGTON
DA 4119-3-1-0150-KEENE_WT,ATT,4,KEENE,TX,JOHNSON,32-23-33,-97-19-31,817-645,76059,NON-LTE,ARLINGTON
DA 4119-3-1-0153-WAXAHACHIE_CENTRAL,ATT,4,WAXAHACHIE,TX,ELLIS,32-23-25,-96-50-59,,75165,NON-LTE,ARLINGTON
DA 4119-3-1-0210-WOODWAY,ATT,4,WACO,TX,MCLENNAN,31-29-34,-97-14-22,254-799,76712,NON-LTE,ARLINGTON
DA 4119-3-1-0238-HAYWIRE_LAKE,ATT,4,FORT WORTH,TX,PARKER,32-47-01,-97-33-09,,76108,NON-LTE,ARLINGTON
DA 4119-3-1-0239-LAKE_WEATHERFORD,ATT,4,PARKER COUNTY,TX,PARKER,32-47-12,-97-38-16,817-,76008,NON-LTE,ARLINGTON
DA 4119-3-1-0241-WEATHERFORD_NORTH,ATT,4,WEATHERFORD,TX,PARKER,32-47-58,-97-48-11,817-599,76086,NON-LTE,ARLINGTON
DA 4119-3-1-0243-WEATHERFORD_SOUTH,ATT,4,WEATHERFORD,TX,PARKER,32-43-08,-97-46-59,817-598,76087,NON-LTE,ARLINGTON
DA 4119-3-1-0251-LAKE_ROBINHOOD,ATT,4,WACO,TX,MCLENNAN,31-33-47.5,-97-10-54.2,,76708,NON-LTE,ARLINGTON
DA 4119-3-1-0253-AXTELL,ATT,4,AXTELL,TX,MCLENNAN,31-39-18.6,-96-59-40.5,,76624,NON-LTE,ARLINGTON
DA 4119-3-1-0287-LAKE_GRANBURY_NORTH,ATT,4,GRANBURY,TX,HOOD,32-30-41.06,-97-45-10.61,,76049,NON-LTE,ARLINGTON
DA 4119-3-1-0290-KRUM,EMBARQCOMM,4,KRUM,TX,DENTON,33-15-59.7,-97-14-02.4,,76249,NON-LTE,ARLINGTON
DA 4119-3-1-0308-NEWARK,ATT,4,NEWARK,TX,WISE,32-59-46.3,-97-30-00.0,,76071,NON-LTE,ARLINGTON
DA 4119-3-1-0342-CONTINENTAL_BOULEVARD,ONE SOURCE,4,SOUTHLAKE,TX,TARRANT,32-55-33.7,-97-09-19.6,,,NON-LTE,ARLINGTON
DA 4119-3-1-0351-TANGLEWOOD_PARK,ATT,4,FORT WORTH,TX,TARRANT,32-42-35.92,-97-23-18.36,,76109,NON-LTE,ARLINGTON
DA 4119-3-1-0352-SYCAMORE_MCCART,ATT,4,FORT WORTH,TX,TARRANT,32-38-03.08,-97-22-06.81,,76123,NON-LTE,ARLINGTON
DA 4119-3-1-0354-MANSFIELD_WEST,ATT,4,MANSFIELD,TX,TARRANT,32-34-34.65,-97-11-49.29,,76063,NON-LTE,ARLINGTON
DA 4119-3-1-0356-FORT_WORTH_ALTAMESA,ATT,4,FORT WORTH,TX,TARRANT,32-39-02.49,-97-22-37.64,,76133,NON-LTE,ARLINGTON
DA 4119-3-1-0361-WAXAHACHIE_EAST,ATT,4,WAXAHACHIE,TX,ELLIS,32-24-21.7,-96-49-42.5,,75168,NON-LTE,ARLINGTON
DA 4119-3-1-0363-TRINITY_VALLEY_SCHOOL,ATT,4,FORT WORTH,TX,TARRANT,32-39-26.91,-97-25-32.66,,76132,NON-LTE,ARLINGTON
DA 4119-3-1-0365-MANSFIELD_EAST,ATT,4,MANSFIELD,TX,TARRANT,32-35-06.18,-97-03-51.93,,76063,NON-LTE,ARLINGTON
DA 4119-3-1-0369 LITTLE_BEAR_CREEK,ATT,4,COLLEYVILLE,TX,TARRANT,32-52-00.25,-97-09-05.95,,76034,NON-LTE,ARLINGTON
DA 4119-3-1-0378  EULESS_ASHLANE_WT,ATT,4,EULESS,TX,TARRANT,32-51-23.37,-97-04-55.26,,76040,NON-LTE,ARLINGTON
DA 4119-3-1-0394-PEADENVILLE,ATT,4,MINERAL WELLS,TX,PALO PINTO,32-55-14.7,-98-04-32.9,940-325,76067,NON-LTE,ARLINGTON
DA 4119-4-1-0013-MAPLEWOOD,ATT,4,WICHITA FALLS,TX,WICHITA,33-51-57,-98-32-00,940-696,76308,NON-LTE,LONESTAR
DA 4119-4-1-0015-MARVIN,ATT,4,WICHITA FALLS,TX,WICHITA,33-53-19,-98-33-26,,76309,NON-LTE,LONESTAR
DA 4119-4-1-0023-VICTORY,ATT,4,WICHITA FALLS,TX,WICHITA,33-53-4,-98-29-35,940-767,76301,NON-LTE,LONESTAR
DA 4119-4-1-0034-CUMBY_EAST,ATT,4,CUMBY,TX,HOPKINS,33-15-42,-94-49-38,903-944,75433,NON-LTE,LONESTAR
DA 4119-4-1-0149-BROADWAY_AVENUE,ATT,4,TYLER,TX,SMITH,32-19-35.53,-95-17-53.57,,75701,NON-LTE,LONESTAR
DA 4119-4-1-0158-VAN,MW,4,VAN,TX,VAN ZANDT,32-30-44.5,-95-40-28.9,903-963,75790,NON-LTE,LONESTAR
DA 4119-4-1-0162-WHITEHOUSE,ATT,4,WHITEHOUSE,TX,SMITH,32-13-48,-95-13-33,903-839,75791,NON-LTE,LONESTAR
DA 4119-4-1-0168-CANDY_INDUSTRIAL,ATT,4,TYLER,TX,SMITH,32-18-10,-95-20-29,903-561,75703,NON-LTE,LONESTAR
DA 4119-4-1-0169-SOUTH_PARK_MALL,ATT,4,TYLER,TX,SMITH,32-18-32,-95-16-27,,75703,NON-LTE,LONESTAR
DA 4119-4-1-0196-LONGVIEW_DOWNTOWN,ATT,4,LONGVIEW,TX,GREGG,32-29-49,-94-44-33,903-753,75601,NON-LTE,LONESTAR
DA 4119-4-1-0221-DECATUR,EMBARQCOMM,4,DECATUR,TX,WISE,33-14-07,-97-35-55,940-393,76234,NON-LTE,LONESTAR
DA 4119-2-1-0002-MELISSA,ATT,3,MELISSA,TX,COLLIN,33-16-38,-96-35-59,972-837,75454,NON-LTE,ARLINGTON
DA 4119-2-1-0008-PRINCETON_WT,ATT,3,PRINCETON,TX,COLLIN,33-10-50,-96-29-42,972-736,75407,NON-LTE,ARLINGTON
DA 4119-2-1-0009-FARMERSVILLE,ATT,3,FARMERSVILLE,TX,COLLIN,33-10-19,-96-23-04,972-782,75442,NON-LTE,ARLINGTON
DA 4119-2-1-0020-GREENVILLE_SOUTHWEST,ATT,3,GREENVILLE,TX,HUNT,33-06-44,-96-07-37,903-454,75402,NON-LTE,ARLINGTON
DA 4119-2-1-0028-MOUNT_BETHEL,ATT,3,GREENVILLE,TX,HUNT,33-4-12,-96-6-40,903-454,75402,NON-LTE,ARLINGTON
DA 4119-2-1-0029-ARDIS_HEIGHTS,ATT,3,GREENVILLE (HUNT CO),TX,HUNT,33-8-24,-96-4-10,903-454,75401,NON-LTE,ARLINGTON
DA 4119-2-1-0106-NELSON_LAKE,ATT,3,ROCKWALL.,TX,ROCKWALL,32-57-35,-96-26-00,972-722,75087,NON-LTE,ARLINGTON
DA 4119-2-1-0108-BERRY_CREEK,ATT,3,ROYSE CITY,TX,ROCKWALL,32-52-28.3,-96-19-06.7,972-636,75087,NON-LTE,ARLINGTON
DA 4119-2-1-0149-FERRIS,MW,3,FERRIS,TX,ELLIS,32-30-17,-96-40-15,972-842,75125,NON-LTE,ARLINGTON
DA 4119-2-1-0150-PALMER,MW,3,PALMER,TX,ELLIS,32-25-35,-96-38-58,972-845,75152,NON-LTE,ARLINGTON
DA 4119-2-1-0159-CORSICANA_NORTH,ATT,3,CORSICANA,TX,NAVARRO,32-08-06,-96-28-05,903-872,75110,NON-LTE,ARLINGTON
DA 4119-2-1-0160-CORSICANA_SOUTH,ATT,3,CORSICANA,TX,NAVARRO,32-0-24,-96-25-50,903-872,75109,NON-LTE,ARLINGTON
DA 4119-2-1-0161-RETREAT,ATT,3,CORSICANA,TX,NAVARRO,32-3-21,-96-29-48,903-872,75110,NON-LTE,ARLINGTON
DA 4119-2-1-0162-CELINA,ATT,3,CELINA,TX,COLLIN,33-20-6,-96-46-55,972-382,75009,NON-LTE,ARLINGTON
DA 4119-2-1-0167-WESTMINSTER,ATT,3,WESTMINSTER,TX,COLLIN,33-21-46,-96-27-34,903-566,75485,NON-LTE,ARLINGTON
DA 4119-2-1-0174-SARDIS_LONE,ATT,3,MIDLOTHIAN,TX,ELLIS,32-30-11,-96-54-32,,76065,NON-LTE,ARLINGTON
DA 4119-2-1-0176-ENNIS,MW,3,ENNIS,TX,ELLIS,32-19-05,-96-37-17,972-875,75119,NON-LTE,ARLINGTON
DA 4119-2-1-0177-MABANK,EMBARQCOMM,3,MABANK,TX,HENDERSON,32-21-26,-96-06-14,903-887,75147,NON-LTE,ARLINGTON
DA 4119-2-1-0180-CRANDALL,ATT,3,CRANDALL,TX,KAUFMAN,32-38-30,-96-27-09,972-472,75114,NON-LTE,ARLINGTON
DA 4119-2-1-0219-RICE,MW,3,RICE,TX,NAVARRO,32-14-48,-96-30-11,903-326,75155,NON-LTE,ARLINGTON
DA 4119-2-1-0226-MCLENDON,ATT,3,ROCKWALL,TX,ROCKWALL,32-49-04,-96-23-26,,75032,NON-LTE,ARLINGTON
DA 4119-2-1-0228-GUN_BARREL_CITY,EMBARQCOMM,3,MABANK,TX,HENDERSON,32-19-46.4,-96-08-51.9,,75156,NON-LTE,ARLINGTON
DA 4119-2-1-0240-ENCHANTED_OAKS,EMBARQCOMM,3,FORGOTTEN ACRES,TX,HENDERSON,32-16-48.8,-96-06-45.8,,75156,NON-LTE,ARLINGTON
DA 4119-2-1-0244-TICKY_CREEK,ATT,3,PRINCETON,TX,COLLIN,33-05-50.1,-96-29-51.6,,75407,NON-LTE,ARLINGTON
DA 4119-2-1-0247-CANEY_CITY,EMBARQCOMM,3,MABANK,TX,HENDERSON,32-14-10.0,-96-03-39.1,,75156,NON-LTE,ARLINGTON
DA 4119-2-1-0250-COMBINE,ATT,3,COMBINE,TX,KAUFMAN,32-35-12.7,-96-30-33.1,,75159,NON-LTE,ARLINGTON
DA 4119-2-1-0253-CORSICANA_NORTHWEST,ATT,3,CORSICANA,TX,NAVARRO,32-06-52.8,-96-29-40.9,,75110,NON-LTE,ARLINGTON
DA 4119-2-1-0263-ENNIS_NORTH_WT,ATT,3,ENNIS,TX,ELLIS,32-20-20.0,-96-38-16.1,,75119,NON-LTE,ARLINGTON
DA 4119-2-1-0333-UMPHRESS_PARK,ATT,3,DALLAS,TX,DALLAS,32-44-27.18,-96-41-50.81,,75217,NON-LTE,ARLINGTON
DA 4119-3-1-0001-SANGER,EMBARQCOMM,3,SANGER,TX,DENTON,33-22-10.1,-97-11-09.8,940-458,76266,NON-LTE,ARLINGTON
DA 4119-3-1-0002-DENTON_WEST,EMBARQCOMM,3,KRUM,TX,DENTON,33-14-49,-97-20-22,940-482,76249,NON-LTE,ARLINGTON
DA 4119-3-1-0004-CROSS_ROADS,ATT,3,AUBREY,TX,DENTON,33-13-22,-96-58-11,940-365,76227,NON-LTE,ARLINGTON
DA 4119-3-1-0012-RHOME,EMBARQCOMM,3,RHOME,TX,WISE,33-03-27,-97-27-56,817-636,76078,NON-LTE,ARLINGTON
DA 4119-3-1-0047-COLLEYVILLE_WT,ATT,3,COLLEYVILLE,TX,TARRANT,32-53-51,-97-09-41,817-281,76034,NON-LTE,ARLINGTON
DA 4119-3-1-0054-TENDERFOOT,ATT,3,TENDERFOOT,TX,TARRANT,32-51-26,-97-30-48,817-237,76135,NON-LTE,ARLINGTON
DA 4119-3-1-0075-NINE_MILE_BRIDGE,ATT,3,FORT WORTH,TX,TARRANT,32-49-49,-97-28-57,817-238,76135,NON-LTE,ARLINGTON
DA 4119-3-1-0115-HANDLEY,ATT,3,FORT WORTH,TX,TARRANT,32-43-50,-97-13-19,817-451,76112,NON-LTE,ARLINGTON
DA 4119-3-1-0142-GILFORD_HILL,ATT,3,MIDLOTHIAN,TX,ELLIS,32-32-07,-96-58-39,972-775,76065,NON-LTE,ARLINGTON
DA 4119-3-1-0143-PRONG_CREEK,ATT,3,MIDLOTHIAN,TX,ELLIS,32-28-39,-96-57-11,972-775,76065,NON-LTE,ARLINGTON
DA 4119-3-1-0144-MIDLOTHIAN,ATT,3,GRAND PRAIRIE,TX,ELLIS,32-30-09,-97-03-33,972-775,76065,NON-LTE,ARLINGTON
DA 4119-3-1-0146-VENUS,WINDSTREAM,3,VENUS,TX,JOHNSON,32-26-01,-97-07-50,972-366,76093,NON-LTE,ARLINGTON
DA 4119-3-1-0152 -BONO,ATT,3,CLEBURNE,TX,JOHNSON,32-18-19,-97-30-39,817-645,76031,NON-LTE,ARLINGTON
DA 4119-3-1-0155-ALVARADO_SOUTH,ATT,3,ALVARADO,TX,JOHNSON,32-22-18,-97-12-18,817-783,76009,NON-LTE,ARLINGTON
DA 4119-3-1-0171-KILPATRICK_STREET_WT,ATT,3,CLEBURNE,TX,JOHNSON,32-21-41.8,-97-24-25.0,,76033,NON-LTE,ARLINGTON
DA 4119-3-1-0175-HUDSON_OAKS,ATT,3,WEATHERFORD,TX,PARKER,32-46-17,-97-42-53,817-594,76087,NON-LTE,ARLINGTON
DA 4119-3-1-0176-WEATHERFORD_CENTRAL,ATT,3,WEATHERFORD,TX,PARKER,32-45-20,-97-49-07,817-594,76086,NON-LTE,ARLINGTON
DA 4119-3-1-0178-MINERAL_WELLS,ATT,3,MINERAL WELLS,TX,PALO PINTO,32-48-41,-98-06-12,817-598,76067,NON-LTE,ARLINGTON
DA 4119-3-1-0179-SANTO_SOUTH,EMBARQCOMM,3,SANTO,TX,PALO PINTO,32-33-22,-98-12-02,940-769,76472,NON-LTE,ARLINGTON
DA 4119-3-1-0182-KENDALL_LANE,ATT,3,WACO,TX,MCLENNAN,31-34-32,-97-4-11,254-799,76705,NON-LTE,ARLINGTON
DA 4119-3-1-0213-COTTONDALE_EAST,EMBARQCOMM,3,BOYD,TX,WISE,33-04-59,-97-38-49,940-433,76023,NON-LTE,ARLINGTON
DA 4119-3-1-0214-CRESSON_SOUTHWEST,WINDSTREAM,3,CRESSON,TX,HOOD,32-31-13,-97-38-19,817-396,76035,NON-LTE,ARLINGTON
DA 4119-3-1-0216-NERI,ATT,3,GRANBURY,TX,HOOD,32-21-10,-97-46-44,817-573,76476,NON-LTE,ARLINGTON
DA 4119-3-1-0218-ANNETTA_NORTH,ATT,3,ALEDO,TX,PARKER,32-41-59,-97-37-18,817-441,76008,NON-LTE,ARLINGTON
DA 4119-3-1-0220-THORP_SPRING,ATT,3,GRANBURY,TX,HOOD,32-28-47,-97-49-53,817-573,76048,NON-LTE,ARLINGTON
DA 4119-3-1-0223-CAMP_CREEK,ATT,3,NEMO,TX,JOHNSON,32-16-51,-97-36-13,817-645,76031,NON-LTE,ARLINGTON
DA 4119-3-1-0225-BURLESON_WEST,ATT,3,BURLESON,TX,TARRANT,32-32-12,-97-24-47,817-447,76058,NON-LTE,ARLINGTON
DA 4119-3-1-0240-HUDSON_OAKS_SOUTH,ATT,3,ALEDO,TX,PARKER,32-44-8,-97-40-17,817-599,76008,NON-LTE,ARLINGTON
DA 4119-3-1-0242-WEATHERFORD_EAST,ATT,3,WEATHERFORD,TX,PARKER,32-46-12,-97-46-41,817-594,76085,NON-LTE,ARLINGTON
DA 4119-3-1-0247-LONG_CREEK,ATT,3,WEATHERFORD,TX,PARKER,32-38-03.6,-97-42-26.5,,76087,NON-LTE,ARLINGTON
DA 4119-3-1-0248-MEADOW_RIDGE,ATT,3,WEATHERFORD,TX,PARKER,32-39-17,-97-48-33,,76087,NON-LTE,ARLINGTON
DA 4119-3-1-0252-CHINA_SPRING,MW,3,CHINA SPRING,TX,MCLENNAN,31-39-26,-97-19-20,,76633,NON-LTE,ARLINGTON
DA 4119-3-1-0255-BUZZARD_HILL,EMBARQCOMM,3,WEATHERFORD,TX,PARKER,32-47-36,-97-57-42,940-682,76088,NON-LTE,ARLINGTON
DA 4119-3-1-0256-BROCK,ATT,3,WEATHERFORD,TX,PARKER,32-42-16,-97-56-30,817-594,76088,NON-LTE,ARLINGTON
DA 4119-3-1-0257-ARTEBURN_POINT,ATT,3,MILSAP,TX,PARKER,32-38-59,-98-03-02,817-594,76066,NON-LTE,ARLINGTON
DA 4119-3-1-0258-INSPIRATION_POINT,ATT,3,MINERAL WELLS,TX,PALO PINTO,32-42-30,-98-06-13,817-326,76067,NON-LTE,ARLINGTON
DA 4119-3-1-0268-HERMAN,EMBARQCOMM,3,DECATUR,TX,WISE,33-08-38,-97-29-48,940-627,76023,NON-LTE,ARLINGTON
DA 4119-3-1-0282-MOODY_NTX,MW,3,MOODY,TX,MCLENNAN,31-18-58,-97-22-05,,76557,NON-LTE,ARLINGTON
DA 4119-3-1-0284-MARTIN_BRANCH,ATT,3,JOSHUA,TX,JOHNSON,32-26-09.1,-97-27-08.7,,76058,NON-LTE,ARLINGTON
DA 4119-3-1-0286-GODLEY,WINDSTREAM,3,GODLEY,TX,JOHNSON,32-27-40.6,-97-31-31.8,,76044,NON-LTE,ARLINGTON
DA 4119-3-1-0289-BOYD,EMBARQCOMM,3,BOYD,TX,WISE,33-04-48,-97-33-11,,76023,NON-LTE,ARLINGTON
DA 4119-3-1-0293-BRIAR,EMBARQCOMM,3,BOYD,TX,WISE,33-01-04.7,-97-33-28.2,,76022,NON-LTE,ARLINGTON
DA 4119-3-1-0301-HAMMOND_HTX,EMBARQCOMM,3,BREMOND,TX,ROBERTSON,31-07-12.14,-96-42-38.48,,76629,NON-LTE,ARLINGTON
DA 4119-3-1-0307-KEETER,EMBARQCOMM,3,SPRINGTOWN,TX,WISE,32-59-57.7,-97-37-11.8,,76082,NON-LTE,ARLINGTON
DA 4119-3-1-0313 GRAYSON_COLLEGE,ATT,3,DENISON,TX,GRAYSON,33-42-19.3,-96-37-41.3,,75020,NON-LTE,ARLINGTON
DA 4119-3-1-0328-CARVER_HIGH_SCHOOL,ATT,3,WACO,TX,MCLENNAN,31-34-51.8,-97-07-36.3,,76704,NON-LTE,ARLINGTON
DA 4119-3-1-0336-WEST_NTX,ATT,3,WEST,TX,MCLENNAN,31-48-32.8,-97-05-57.7,,76691,NON-LTE,ARLINGTON
DA 4119-4-1-0005-ALVORD,EMBARQCOMM,3,ALVORD,TX,WISE,33-21-21,-97-41-12,940-427,76225,NON-LTE,LONESTAR
DA 4119-4-1-0007-BOWIE,ATT,3,BOWIE,TX,MONTAGUE,33-32-53,-97-52-19,940-872,76230,NON-LTE,LONESTAR
DA 4119-4-1-0014-MEMORIAL_STADIUM,ATT,3,WICHITA FALLS,TX,WICHITA,33-51-40,-98-35-17,940-692,76310,NON-LTE,LONESTAR
DA 4119-4-1-0021-BURKBURNETT,ATT,3,BURKBURNETT,TX,WICHITA,34-5-28,-98-33-36,940-569,76354,NON-LTE,LONESTAR
DA 4119-4-1-0033-COMMERCE_CITY,EMBARQCOMM,3,COMMERCE,TX,HUNT,33-14-32,-95-55-23,903-468,75428,NON-LTE,LONESTAR
DA 4119-4-1-0135-BIG_SIS_CREEK,ATT,3,WASKOM,TX,HARRISON,32-29-26,-94-09-10,903-753,75692,NON-LTE,LONESTAR
DA 4119-4-1-0140-HOUSTON_STREET,ATT,3,MARSHALL,TX,HARRISON,32-32-36,-94-20-47,903-935,75672,NON-LTE,LONESTAR
DA 4119-4-1-0141-MARSHALL_EAST_LOOP,ATT,3,MARSHALL,TX,HARRISON,32-32-41,-94-17-46,903-935,75672,NON-LTE,LONESTAR
DA 4119-4-1-0142-SCOTTSVILLE,ATT,3,SCOTTSVILLE,TX,HARRISON,32-32-03,-94-14-28,908-938,75672,NON-LTE,LONESTAR
DA 4119-4-1-0143-SOUTH_WASHINGTON,ATT,3,MARSHALL,TX,HARRISON,32-29-38,-94-21-42,903-935,75672,NON-LTE,LONESTAR
DA 4119-4-1-0144-SOUTHWEST_ROAD,ATT,3,MARSHALL,TX,HARRISON,32-31-35,-94-23-43,903-753,75670,NON-LTE,LONESTAR
DA 4119-4-1-0146-WASKOM,EASTTEXTEL,3,WASKOM,TX,HARRISON,32-28-27,-94-02-58,903-687,75692,NON-LTE,LONESTAR
DA 4119-4-1-0150-ATHENS,EMBARQCOMM,3,ATHENS,TX,HENDERSON,32-12-12,-95-50-57,903-677,75751,NON-LTE,LONESTAR
DA 4119-4-1-0151-BROWNSBORO,EMBARQCOMM,3,HENDERSON COUNTY,TX,HENDERSON,32-19-18,-95-38-8,903-852,75756,NON-LTE,LONESTAR
DA 4119-4-1-0152-CHANDLER,EMBARQCOMM,3,CHANDLER,TX,HENDERSON,32-18-29,-95-28-26,903-849,75758,NON-LTE,LONESTAR
DA 4119-4-1-0156-LINDALE,ATT,3,LINDALE,TX,SMITH,32-31-08,-95-23-48,940-882,75771,NON-LTE,LONESTAR
DA 4119-4-1-0163-PINE_TRAIL_ESTATES,EMBARQCOMM,3,FLINT,TX,SMITH,32-12-08,-95-27-37,903-825,75762,NON-LTE,LONESTAR
DA 4119-4-1-0164-AIRPORT_ROAD,ATT,3,TYLER,TX,SMITH,32-21-15,-95-21-29,903-592,75702,NON-LTE,LONESTAR
DA 4119-4-1-0167-THE_WOODS,ATT,3,TYLER,TX,SMITH,32-18-36,-95-13-34,903-566,75707,NON-LTE,LONESTAR
DA 4119-4-1-0170-SWAN,MW,3,TYLER,TX,SMITH,32-24-24.5,-95-20-25.8,903-592,75706,NON-LTE,LONESTAR
DA 4119-4-1-0174-OWENTOWN,ATT,3,SMITH CO,TX,SMITH,32-26-05,-95-11-45,903-877,75708,NON-LTE,LONESTAR
DA 4119-4-1-0175-CUMBERLAND_ROAD,ATT,3,TYLER,TX,SMITH,32-15-10,-95-19-10,903-561,75703,NON-LTE,LONESTAR
DA 4119-4-1-0176-BARBEE_ROAD,ATT,3,WHITEHOUSE,TX,SMITH,32-16-02,-95-15-11,903-561,75707,NON-LTE,LONESTAR
DA 4119-4-1-0181-GOLD_BRANCH,EMBARQCOMM,3,LARUE,TX,HENDERSON,32-9-11,-95-44-26,903-675,75770,NON-LTE,LONESTAR
DA 4119-4-1-0184-FLINT,EMBARQCOMM,3,FLINT,TX,SMITH,32-12-23,-95-22-13,903-894,75762,NON-LTE,LONESTAR
DA 4119-4-1-0186-ARP,EMBARQCOMM,3,ARP,TX,SMITH,32-14-32.6,-95-02-32.0,,75750,NON-LTE,LONESTAR
DA 4119-4-1-0190-ATLANTIC_CAMP,ATT,3,LONGVIEW,TX,GREGG,32-30-50,-94-49-36,903-759,75604,NON-LTE,LONESTAR
DA 4119-4-1-0191-FERGUSON_LAKE,ATT,3,LONGVIEW,TX,GREGG,32-27-02,-94-42-14,903-753,75602,NON-LTE,LONESTAR
DA 4119-4-1-0192-GLADEWATER,ATT,3,GLADEWATER,TX,GREGG,32-32-48.6,-94-56-29.5,,75647,NON-LTE,LONESTAR
DA 4119-4-1-0193-HOWELL_CLUB_LAKE,ATT,3,TYLER,TX,SMITH,32-26-43,-95-03-46,903-877,75792,NON-LTE,LONESTAR
DA 4119-4-1-0197-LONGVIEW_HEIGHTS,ATT,3,LONGVIEW,TX,HARRISON,32-29-3,-94-40-59,903-753,75602,NON-LTE,LONESTAR
DA 4119-4-1-0209-GOLDEN_ROAD,ATT,3,TYLER ,TX,SMITH,32-19-57,-95-16-15,,75701,NON-LTE,LONESTAR
DA 4119-4-1-0220-BRIDGEPORT,EMBARQCOMM,3,BRIDGEPORT,TX,WISE,33-13-48,-97-45-45,940-683,76426,NON-LTE,LONESTAR
DA 4119-4-1-0229-SQUAW_CREEK,WINDSTREAM,3,TOLAR,TX,HOOD,32-20-06.2,-97-51-21.4,,76476,NON-LTE,LONESTAR
DA 4119-4-1-0230-GRANBURY_SOUTHWEST,ATT,3,GRANBURY,TX,HOOD,32-24-16.09,-97-49-01.14,,76048,NON-LTE,LONESTAR
DA 4119-4-1-0231-TOLAR,WINDSTREAM,3,TOLAR,TX,HOOD,32-23-39.61,-97-54-05.78,,76476,NON-LTE,LONESTAR
DA 4119-4-1-0235-LAKE_BRIDGEPORT,EMBARQCOMM,3,LAKE BRIDGEPORT,TX,WISE,33-12-08.7,-97-49-42.3,,76426,NON-LTE,LONESTAR
DA 4119-2-1-0110-FORNEY,ATT,2,FORNEY,TX,KAUFMAN,32-45-11.4,-96-27-40.9,,75126,NON-LTE,ARLINGTON
DA 4119-2-1-0156-MYRTLE_SPRINGS,ATT,2,WILLS POINT,TX,VAN ZANDT,32-37-27.5,-95-59-45.9,903-873,75169,NON-LTE,ARLINGTON
DA 4119-2-1-0157-OAKLAND,MW,2,CANTON,TX,VAN ZANDT,32-33-23.5,-95-47-43.9,903-829,75103,NON-LTE,ARLINGTON
DA 4119-2-1-0175-MUSTANG_CREEK,MW,2,WAXAHACHIE,TX,ELLIS,32-20-28,-96-43-48,972-937,75165,NON-LTE,ARLINGTON
DA 4119-2-1-0178-KEMP,EMBARQCOMM,2,KAUFMAN CO,TX,KAUFMAN,32-27-36,-96-14-25,903-498,75142,NON-LTE,ARLINGTON
DA 4119-2-1-0179-KAUFMAN,EMBARQCOMM,2,KAUFMAN,TX,KAUFMAN,32-33-56,-96-18-35,972-932,75142,NON-LTE,ARLINGTON
DA 4119-2-1-0181-SEAGOVILLE_WT,ATT,2,SEAGOVILLE,TX,DALLAS,32-38-19,-96-32-25,972-287,75159,NON-LTE,ARLINGTON
DA 4119-3-1-0154-ALVARADO_NORTH,MW,2,ALVARADO,TX,JOHNSON,32-26-58,-97-16-25,817-783,76009,NON-LTE,ARLINGTON
DA 4119-3-1-0158-WAXAHACHIE_NORTH,MW,2,WAXAHACHIE,TX,ELLIS,32-27-37,-96-50-57,972-923,75165,NON-LTE,ARLINGTON
DA 4119-3-1-0163-ABBOTT,ATT,2,ABBOTT,TX,HILL,31-52-47,-97-05-32,817-582,76622,NON-LTE,ARLINGTON
DA 4119-3-1-0202-MCLENNAN_COMMUNITY_COLLEGE,ATT,2,WACO,TX,MCLENNAN,31-35-19.3,-97-10-43.2,254-752,76708,NON-LTE,ARLINGTON
DA 4119-3-1-0211-ROBINSON,ATT,2,ROBINSON,TX,MCLENNAN,31-27-39,-97-06-43,254-662,76706,NON-LTE,ARLINGTON
DA 4119-3-1-0221-GLEN_ROSE,WINDSTREAM,2,GLENROSE,TX,SOMERVELL,32-14-59,-97-44-00,254-897,76043,NON-LTE,ARLINGTON
DA 4119-3-1-0244 GRAYSON_AIRPORT_WT,ATT,2,DENISON,TX,GRAYSON,33-42-37.7,-96-39-53.8,,75020,NON-LTE,ARLINGTON
DA 4119-3-1-0272-MART,ATT,2,MART,TX,LIMESTONE,31-33-37,-96-49-36,,76664,NON-LTE,ARLINGTON
DA 4119-3-1-0273-RIESEL,WINDSTREAM,2,RIESEL,TX,MCLENNAN,31-28-10,-96-55-16,,76682,NON-LTE,ARLINGTON
DA 4119-3-1-0292-ALVARADO,MW,2,ALVARADO,TX,JOHNSON,32-25-17,-97-12-42,,76009,NON-LTE,ARLINGTON
DA 4119-3-1-0310-HALLSBURG,ATT,2,RIESEL,TX,MCLENNAN,31-17-17,-96-53-36,254-875,76682,NON-LTE,ARLINGTON
DA 4119-3-1-0329-HERRING_AVENUE,ATT,2,WACO,TX,MCLENNAN,31-34-06.54,-97-09-19.55,,76708,NON-LTE,ARLINGTON
DA 4119-3-1-0334-NEW_SALEM,EMBARQCOMM,2,SANTO,TX,PALO PINTO,32-36-16.4,-98-06-50.4,,76472,NON-LTE,ARLINGTON
DA 4119-3-1-0382-DENISON_CENTRAL,ATT,2,DENISON,TX,GRAYSON,33-45-00.48,-96-33-11.30,,75020,NON-LTE,ARLINGTON
DA 4119-4-1-0004-WICHITA_FALLS_SOUTH,ATT,2,WICHITA FALLS,TX,WICHITA,33-50-15,-98-30-54,,73062,NON-LTE,LONESTAR
DA 4119-4-1-0006-SUNSET_CITY,EMBARQCOMM,2,SUNSET,TX,MONTAGUE,33-28-14,-97-46-50,940-845,76270,NON-LTE,LONESTAR
DA 4119-4-1-0018-IOWA_PARK,ATT,2,IOWA PARK,TX,WICHITA,33-56-55,-98-40-22,940-592,76367,NON-LTE,LONESTAR
DA 4119-4-1-0019-FOWLKES,ATT,2,ELECTRA,TX,WICHITA,33-59-26,-98-49-34,940-592,76360,NON-LTE,LONESTAR
DA 4119-4-1-0030-CAMPBELL,PEOPLESTEL,2,CAMPBELL,TX,HUNT,33-8-0,-95-56-44,903-862,75422,NON-LTE,LONESTAR
DA 4119-4-1-0031-NEYLANDVILLE,ATT,2,GREENVILLE,TX,HUNT,32-12-10,-96-0-11,903-454,75401,NON-LTE,LONESTAR
DA 4119-4-1-0134-KEOKUK,ATT,2,MARSHALL,TX,HARRISON,32-31-18,-94-29-42,903-938,75650,NON-LTE,LONESTAR
DA 4119-4-1-0136-BRANDY_BRANCH,ATT,2,MARSHALL,TX,HARRISON,32-29-23,-94-28-10,903-931,75670,NON-LTE,LONESTAR
DA 4119-4-1-0137-BUCK_SHERROD,ATT,2,MARSHALL,TX,HARRISON,32-29-58.8,-94-16-01.7,903-935,75672,NON-LTE,LONESTAR
DA 4119-4-1-0145-SUE_BELLE_LAKE,ATT,2,MARSHALL,TX,HARRISON,32-34-18,-94-22-27,903-753,75670,NON-LTE,LONESTAR
DA 4119-4-1-0153-MURCHISON,EMBARQCOMM,2,MURCHISON,TX,HENDERSON,32-15-35,-95-46-26,903-469,75751,NON-LTE,LONESTAR
DA 4119-4-1-0154-STOCKARD,EMBARQCOMM,2,ATHENS,TX,HENDERSON,32-16-55,-95-57-33,903-425,75751,NON-LTE,LONESTAR
DA 4119-4-1-0160-MOUNT_SYLVAN,MW,2,TYLER,TX,SMITH,32-27-44.5,-95-27-26.9,903-882,75771,NON-LTE,LONESTAR
DA 4119-4-1-0165-NOONDAY,ATT,2,TYLER,TX,SMITH,32-15-27,-95-23-22,903-561,75703,NON-LTE,LONESTAR
DA 4119-4-1-0166-OVERTON_ROAD,ATT,2,TYLER,TX,SMITH,32-21-16,-95-14-38,817-592,75707,NON-LTE,LONESTAR
DA 4119-4-1-0172-TYLER_EAST,ATT,2,TYLER,TX,SMITH,32-23-24,-95-16-36,903-592,75708,NON-LTE,LONESTAR
DA 4119-4-1-0173-TYLER_CENTRAL,ATT,2,TYLER,TX,SMITH,32-21-03,-95-18-37,903-592,75702,NON-LTE,LONESTAR
DA 4119-4-1-0180-POYNOR,EMBARQCOMM,2,POYNER,TX,HENDERSON,32-5-27,-95-37-24,903-876,75782,NON-LTE,LONESTAR
DA 4119-4-1-0183-BULLARD,EMBARQCOMM,2,BULLARD,TX,SMITH,32-08-39,-95-20-0,903-894,75757,NON-LTE,LONESTAR
DA 4119-4-1-0185-NEW_CHAPEL_HILL,ATT,2,TYLER,TX,SMITH,32-17-22.75,-95-07-59.80,903-566,75707,NON-LTE,LONESTAR
DA 4119-4-1-0187-TURNERTOWN,ATT,2,TURNERTOWN,TX,RUSK,32-11-20.7,-94-57-03.7,,75689,NON-LTE,LONESTAR
DA 4119-4-1-0201-PLEASANT_HILL,ATT,2,LONGVIEW,TX,GREGG,32-37-31,-94-43-46,903-753,75605,NON-LTE,LONESTAR
DA 4119-4-1-0202-ROLLING_MEADOWS,ATT,2,KILGORE,TX,GREGG,32-25-59,-94-47-14,903-753,75603,NON-LTE,LONESTAR
DA 4119-4-1-0226-ATHENS_SOUTHWEST,EMBARQCOMM,2,ATHENS,TX,HENDERSON,32-10-32.3,-95-53-29.2,,75751,NON-LTE,LONESTAR
DA 4119-4-1-0228-COMANCHE_PEAK,WINDSTREAM,2,GLEN ROSE,TX,SOMERVELL,32-17-23.9,-97-47-55.0,,75043,NON-LTE,LONESTAR
DA 4119-4-1-0238-SAINT_JO,EMBARQCOMM,2,SAINT JO,TX,MONTAGUE,33-41-37,-97-30-21,,76265,NON-LTE,LONESTAR
DA 4119-4-1-0239-MONTAGUE_CITY,WINDSTREAM,2,MONTAGUE,TX,MONTAGUE,33-39-03,-97-43-26,,76230,NON-LTE,LONESTAR
DA 4119-4-1-0240-BONITA,WINDSTREAM,2,NOCONA,TX,MONTAGUE,33-45-01,-97-36-09,,76255,NON-LTE,LONESTAR
DA 4119-4-1-0241-NOCONA_WT,WINDSTREAM,2,NOCONA,TX,MONTAGUE,33-47-19,-97-43-26,,76255,NON-LTE,LONESTAR
DA 4119-4-1-0242-LAKE_NOCONA,WINDSTREAM,2,NOCONA,TX,MONTAGUE,33-51-39,-97-38-24,,76255,NON-LTE,LONESTAR
DA 4119-4-1-0243-BELCHERVILLE,WINDSTREAM,2,RINGGOLD,TX,MONTAGUE,33-48-40,-97-54-11,,76261,NON-LTE,LONESTAR
DA 4119-4-1-0251-GORDON_EAST,ATT,2,GORDON,TX,PALO PINTO,32-32-38.6,-98-17-36.8,,76453,NON-LTE,LONESTAR
DA 4119-4-1-0258-GLASS,WINDSTREAM,2,GLEN ROSE,TX,SOMERVELL,32-11-29.6,-97-49-58.3,,76043,NON-LTE,LONESTAR
DA 4119-4-1-0259-GLEN_ROSE_WEST,WINDSTREAM,2,GLEN ROSE,TX,SOMERVELL,32-13-29.48,-97-46-57.95,,76043,NON-LTE,LONESTAR
DA 4119-2-1-0155-TERRELL,MICROWAVE,1,TERRELL,TX,KAUFMAN,32-40-06,-96-11-37,903-873,75161,NON-LTE,ARLINGTON
DA 4119-2-1-0220-ANGUS,MW,1,CORSICANA,TX,NAVARRO,32-05-25,-96-27-51,903-872,75110,NON-LTE,ARLINGTON
DA 4119-2-1-0221-RICHLAND,MW,1,RICHLAND,TX,NAVARRO,31-55-35,-96-25-30,903-362,76681,NON-LTE,ARLINGTON
DA 4119-2-1-0327-NORTHWOOD_UNIVERSITY,ATT,1,CEDAR HILL,TX,DALLAS,32-36-29.68,-96-58-09.69,,75104,NON-LTE,ARLINGTON
DA 4119-3-1-0006-SPENCER_RT,MW,1,DENTON,TX,DENTON,33-11-54,-97-06-24,940-381,76205,NON-LTE,ARLINGTON
DA 4119-3-1-0156-GRANDVIEW,MW,1,GRANDVIEW,TX,HILL,32-15-06,-97-10-14,817-866,76050,NON-LTE,ARLINGTON
DA 4119-3-1-0157-ITASCA_REPL,MW,1,ITASCA,TX,HILL,32-08-53.6,-97-08-23.38,,76055,NON-LTE,ARLINGTON
DA 4119-3-1-0159-WAXAHACHIE_SOUTH,MW,1,WAXAHACHIE,TX,ELLIS,32-20-02,-96-51-37,972-923,75167,NON-LTE,ARLINGTON
DA 4119-3-1-0160-ITALY,MW,1,ITALY,TX,ELLIS,32-11-52,-96-54-09,972-483,76651,NON-LTE,ARLINGTON
DA 4119-3-1-0161-MILFORD,MW,1,MILFORD,TX,HILL,32-05-55,-97-00-22,972-493,76670,NON-LTE,ARLINGTON
DA 4119-3-1-0162-HILLSBORO,MW,1,HILLSBORO,TX,HILL,31-59-38,-97-05-35,817-582,76645,NON-LTE,ARLINGTON
DA 4119-3-1-0164-ROSS,MW,1,ROSS,TX,MCLENNAN,31-44-57,-97-06-12,817-829,76691,NON-LTE,ARLINGTON
DA 4119-3-1-0167-LORENA,MW,1,LORENA,TX,MCLENNAN,31-24-42,-97-12-35,254-857,76655,NON-LTE,ARLINGTON
DA 4119-3-1-0172-DECATUR_EAST,EMBARQCOMM,1,DECATUR,TX,WISE,33-14-36,-97-31-37,940-627,76234,NON-LTE,ARLINGTON
DA 4119-3-1-0199-MCGREGOR,MW,1,MCGREGOR,TX,MCLENNAN,31-26-40,-97-23-37,254-840,76657,NON-LTE,ARLINGTON
DA 4119-3-1-0201-FAIRGROUNDS,ATT,1,WACO,TX,MCLENNAN,31-32-02.4,-97-10-55.3,254-772,76710,NON-LTE,ARLINGTON
DA 4119-3-1-0206-CRAWFORD_NORTHWEST,MW,1,CRAWFORD,TX,MCLENNAN,31-33-50.4,-97-28-50.0,,76638,NON-LTE,ARLINGTON
DA 4119-3-1-0212-SPEEGLEVILLE,MW,1,WACO,TX,MCLENNAN,31-33-48.2,-97-15-39.9,254-848,76712,NON-LTE,ARLINGTON
DA 4119-3-1-0254-HILLSBORO_NORTHWEST,MW,1,HILLSBORO,TX,HILL,32-01-12,-97-08-16,254-580,76645,NON-LTE,ARLINGTON
DA 4119-3-1-0285-SILVER_CREEK,MW,1,WEATHERFORD,TX,PARKER,32-51-31,-97-38-04,817-444,76085,NON-LTE,ARLINGTON
DA 4119-3-1-0333-SPEEGLEVILLE_WEST,MW,1,CRAWFORD,TX,MCLENNAN,31-35-03.88,-97-22-49.85,,76638,NON-LTE,ARLINGTON
DA 4119-3-1-0339-LACY_LAKEVIEW,ATT,1,WACO,TX,MCLENNAN,31-38-46.9,-97-06-01.4,,76705,NON-LTE,ARLINGTON
DA 4119-4-1-0159-CARROLL,MW,1,LINDALE,TX,SMITH,32-29-14,-95-32-49,903-882,75771,NON-LTE,LONESTAR
DA 4119-4-1-0171-TYLER_STATE_PARK,MW,1,TYLER,TX,SMITH,32-27-18,-95-17-05,903-592,75706,NON-LTE,LONESTAR
DA 4119-ARLINGTON_MSC,808 110th St,,ARLINGTON,TX,TARRANT,32-45-19,-97-03-02,,76011,,
DA 4119-LONESTAR_MSC,2170 Lonestar,,DALLAS,TX,DALLAS,32-46-08.99,-96-51-23.04,,75212,,
